OBJECT_NAME,OBJECT_ID,EPOCH,MEAN_MOTION,ECCENTRICITY,INCLINATION,RA_OF_ASC_NODE,ARG_OF_PERICENTER,MEAN_ANOMALY,EPHEMERIS_TYPE,CLASSIFICATION_TYPE,NORAD_CAT_ID,ELEMENT_SET_NO,REV_AT_EPOCH,BSTAR,MEAN_MOTION_DOT,MEAN_MOTION_DDOT
STARLINK-37491,2026-111U,2026-06-10T03:00:41.770944,15.77566654,.00041662,53.1590,187.0361,102.0402,258.1087,0,U,69166,999,314,-.57037194E-2,-.876841E-2,0
STARLINK-37474,2026-111V,2026-06-10T04:28:10.335936,15.78131045,.00023513,53.1591,186.7032,130.9588,229.1637,0,U,69167,999,315,-.2873651E-3,-.5045E-3,0
STARLINK-37469,2026-111W,2026-06-10T06:00:02.999808,15.55015048,.00012982,53.1600,186.7003,76.9763,130.3073,0,U,69168,999,443,-.42387196E-1,-.2563304E-1,0
STARLINK-37515,2026-111X,2026-06-10T04:25:48.941472,15.78117268,.00012368,53.1592,186.6920,80.7287,279.3875,0,U,69169,999,315,.11610989E-2,.206451E-2,0
STARLINK-37437,2026-111Y,2026-06-10T06:00:02.999808,15.78067748,.00011957,53.1591,186.3159,111.1282,285.2872,0,U,69170,999,443,-.42988173E-3,-.74701E-3,0
STARLINK-37392,2026-111Z,2026-06-10T05:47:13.227648,15.78129467,.000109,53.1590,186.3294,89.4427,270.6719,0,U,69171,999,316,.1102162E-2,.195798E-2,0
STARLINK-37472,2026-111AA,2026-06-10T06:00:02.999808,15.78607300,.0001098,53.1592,186.2545,66.2576,359.6148,0,U,69172,999,443,-.13190379E-1,-.2026069E-1,0
STARLINK-37461,2026-111AB,2026-06-10T06:00:02.999808,15.56880781,.00014732,53.1599,186.6234,83.2747,161.0752,0,U,69173,999,443,-.3969393E-1,-.2520888E-1,0
STARLINK-37333,2026-111AC,2026-06-10T04:23:29.436576,15.78113929,.00013471,53.1585,186.6812,73.9168,286.2002,0,U,69174,999,315,.11034762E-2,.195898E-2,0
STARLINK-37385,2026-111AD,2026-06-10T06:00:02.999808,15.58858426,.00012247,53.1600,186.5582,86.1577,190.3860,0,U,69175,999,443,-.36906153E-1,-.2525899E-1,0
STARLINK-37414,2026-111AE,2026-06-10T05:48:23.687712,15.78127540,.00010426,53.1590,186.3349,94.3854,265.7287,0,U,69176,999,316,.1115345E-2,.198187E-2,0
STRIX-7,2026-112A,2026-06-10T06:03:54.862848,15.01402392,.00238269,44.9065,228.8700,7.7887,352.3350,0,U,69177,999,283,.23293447E-3,.2835E-4,0
SHENZHOU-23 (SZ-23),2026-113A,2026-06-10T06:11:20.390496,15.60521167,.0008406,41.4694,4.1634,21.6299,338.4893,0,U,69180,999,29188,.26248404E-3,.22027E-3,0
STARLINK-37380,2026-114A,2026-06-10T06:04:12.819360,15.78065894,.00014432,53.1587,237.1167,57.4242,302.6919,0,U,69182,999,367,.92575157E-3,.163254E-2,0
STARLINK-37089,2026-114B,2026-06-10T06:02:52.099296,15.78089212,.00013363,53.1587,237.1101,50.9018,309.2122,0,U,69183,999,367,.60038306E-3,.105026E-2,0
STARLINK-37428,2026-114C,2026-06-10T06:00:50.559552,15.78103853,.00012927,53.1588,237.1008,57.2790,302.8356,0,U,69184,999,367,.93772413E-3,.165704E-2,0
STARLINK-37237,2026-114D,2026-06-10T05:56:52.705536,15.78107753,.00012965,53.1589,237.0818,45.6184,314.4943,0,U,69185,999,367,.9815962E-3,.173682E-2,0
STARLINK-37365,2026-114E,2026-06-10T05:57:19.794528,15.78095289,.00013242,53.1590,237.0839,39.6754,320.4364,0,U,69186,999,367,.86821538E-3,.153084E-2,0
STARLINK-37209,2026-114F,2026-06-10T05:56:13.021152,15.78091746,.00010742,53.1590,237.0792,66.9765,293.1370,0,U,69187,999,367,.92034971E-3,.16247E-2,0
STARLINK-37359,2026-114G,2026-06-10T05:55:34.922208,15.78107534,.00014401,53.1589,237.0757,55.9848,304.1311,0,U,69188,999,367,.95692652E-3,.169209E-2,0
STARLINK-37440,2026-114H,2026-06-10T06:00:02.999808,15.80993157,.00012109,53.1600,236.5991,105.5391,134.9050,0,U,69189,999,369,-.11890061E-2,-.230504E-2,0
STARLINK-37282,2026-114J,2026-06-10T06:00:02.999808,15.78087099,.00011064,53.1598,236.9834,100.9354,313.4727,0,U,69190,999,369,-.28697462E-3,-.50274E-3,0
STARLINK-37422,2026-114K,2026-06-10T07:09:34.467840,15.80915644,.00011513,53.1586,236.6790,120.6191,239.4945,0,U,69191,999,368,.76574519E-3,.15345E-2,0
STARLINK-37424,2026-114L,2026-06-10T06:00:02.999808,15.78086373,.00012568,53.1592,236.9858,120.8232,292.9619,0,U,69192,999,369,-.29145097E-3,-.51042E-3,0
STARLINK-36666,2026-114M,2026-06-10T05:38:51.573696,15.80953828,.00021295,53.1584,236.9980,25.3705,334.7422,0,U,69193,999,367,.12097587E-2,.245911E-2,0
STARLINK-37355,2026-114N,2026-06-10T05:37:46.746912,15.80923946,.00014686,53.1584,236.9934,38.1645,321.9482,0,U,69194,999,367,.82662131E-3,.166013E-2,0
STARLINK-37166,2026-114P,2026-06-10T05:35:37.099392,15.80930245,.00015045,53.1584,236.9823,42.6732,317.4407,0,U,69195,999,367,.77597977E-3,.155657E-2,0
STARLINK-36933,2026-114Q,2026-06-10T05:36:41.860512,15.80936359,.00014514,53.1586,236.9878,46.5759,313.5384,0,U,69196,999,367,.95446615E-3,.192501E-2,0
STARLINK-37419,2026-114R,2026-06-10T05:34:32.323584,15.80946190,.00014694,53.1582,236.9774,44.5600,315.5541,0,U,69197,999,367,.11915728E-2,.242002E-2,0
