STARLINK-37491          
1 69166U 26111U   26161.12548346 -.00876841  00000+0 -57037-2 0  9997
2 69166  53.1590 187.0361 0004166 102.0402 258.1087 15.77566654  3146
STARLINK-37474          
1 69167U 26111V   26161.18623074 -.00050450  00000+0 -28737-3 0  9992
2 69167  53.1591 186.7032 0002351 130.9588 229.1637 15.78131045  3151
STARLINK-37469          
1 69168U 26111W   26161.25003472 -.02563304  00000+0 -42387-1 0  9999
2 69168  53.1600 186.7003 0001298  76.9763 130.3073 15.55015048  4432
STARLINK-37515          
1 69169U 26111X   26161.18459423  .00206451  00000+0  11611-2 0  9993
2 69169  53.1592 186.6920 0001236  80.7287 279.3875 15.78117268  3150
STARLINK-37437          
1 69170U 26111Y   26161.25003472 -.00074701  00000+0 -42988-3 0  9997
2 69170  53.1591 186.3159 0001195 111.1282 285.2872 15.78067748  4432
STARLINK-37392          
1 69171U 26111Z   26161.24112532  .00195798  00000+0  11022-2 0  9997
2 69171  53.1590 186.3294 0001090  89.4427 270.6719 15.78129467  3168
STARLINK-37472          
1 69172U 26111AA  26161.25003472 -.02026069  00000+0 -13190-1 0  9996
2 69172  53.1592 186.2545 0001098  66.2576 359.6148 15.78607300  4437
STARLINK-37461          
1 69173U 26111AB  26161.25003472 -.02520888  00000+0 -39694-1 0  9992
2 69173  53.1599 186.6234 0001473  83.2747 161.0752 15.56880781  4438
STARLINK-37333          
1 69174U 26111AC  26161.18297959  .00195898  00000+0  11035-2 0  9995
2 69174  53.1585 186.6812 0001347  73.9168 286.2002 15.78113929  3152
STARLINK-37385          
1 69175U 26111AD  26161.25003472 -.02525899  00000+0 -36906-1 0  9994
2 69175  53.1600 186.5582 0001224  86.1577 190.3860 15.58858426  4433
STARLINK-37414          
1 69176U 26111AE  26161.24194083  .00198187  00000+0  11153-2 0  9993
2 69176  53.1590 186.3349 0001042  94.3854 265.7287 15.78127540  3165
STRIX-7                 
1 69177U 26112A   26161.25271832  .00002835  00000+0  23293-3 0  9997
2 69177  44.9065 228.8700 0023826   7.7887 352.3350 15.01402392  2836
SHENZHOU-23 (SZ-23)     
1 69180U 26113A   26161.25787489  .00022027  00000+0  26248-3 0  9990
2 69180  41.4694   4.1634 0008406  21.6299 338.4893 15.60521167291889
STARLINK-37380          
1 69182U 26114A   26161.25292615  .00163254  00000+0  92575-3 0  9999
2 69182  53.1587 237.1167 0001443  57.4242 302.6919 15.78065894  3679
STARLINK-37089          
1 69183U 26114B   26161.25199189  .00105026  00000+0  60038-3 0  9994
2 69183  53.1587 237.1101 0001336  50.9018 309.2122 15.78089212  3677
STARLINK-37428          
1 69184U 26114C   26161.25058518  .00165704  00000+0  93772-3 0  9995
2 69184  53.1588 237.1008 0001292  57.2790 302.8356 15.78103853  3679
STARLINK-37237          
1 69185U 26114D   26161.24783224  .00173682  00000+0  98160-3 0  9994
2 69185  53.1589 237.0818 0001296  45.6184 314.4943 15.78107753  3675
STARLINK-37365          
1 69186U 26114E   26161.24814577  .00153084  00000+0  86822-3 0  9997
2 69186  53.1590 237.0839 0001324  39.6754 320.4364 15.78095289  3673
STARLINK-37209          
1 69187U 26114F   26161.24737293  .00162470  00000+0  92035-3 0  9999
2 69187  53.1590 237.0792 0001074  66.9765 293.1370 15.78091746  3676
STARLINK-37359          
1 69188U 26114G   26161.24693197  .00169209  00000+0  95693-3 0  9994
2 69188  53.1589 237.0757 0001440  55.9848 304.1311 15.78107534  3674
STARLINK-37440          
1 69189U 26114H   26161.25003472 -.00230504  00000+0 -11890-2 0  9992
2 69189  53.1600 236.5991 0001210 105.5391 134.9050 15.80993157  3691
STARLINK-37282          
1 69190U 26114J   26161.25003472 -.00050274  00000+0 -28697-3 0  9992
2 69190  53.1598 236.9834 0001106 100.9354 313.4727 15.78087099  3692
STARLINK-37422          
1 69191U 26114K   26161.29831560  .00153450  00000+0  76575-3 0  9990
2 69191  53.1586 236.6790 0001151 120.6191 239.4945 15.80915644  3683
STARLINK-37424          
1 69192U 26114L   26161.25003472 -.00051042  00000+0 -29145-3 0  9997
2 69192  53.1592 236.9858 0001256 120.8232 292.9619 15.78086373  3691
STARLINK-36666          
1 69193U 26114M   26161.23531914  .00245911  00000+0  12098-2 0  9999
2 69193  53.1584 236.9980 0002129  25.3705 334.7422 15.80953828  3679
STARLINK-37355          
1 69194U 26114N   26161.23456883  .00166013  00000+0  82662-3 0  9991
2 69194  53.1584 236.9934 0001468  38.1645 321.9482 15.80923946  3671
STARLINK-37166          
1 69195U 26114P   26161.23306828  .00155657  00000+0  77598-3 0  9999
2 69195  53.1584 236.9823 0001504  42.6732 317.4407 15.80930245  3674
STARLINK-36933          
1 69196U 26114Q   26161.23381783  .00192501  00000+0  95447-3 0  9995
2 69196  53.1586 236.9878 0001451  46.5759 313.5384 15.80936359  3673
STARLINK-37419          
1 69197U 26114R   26161.23231856  .00242002  00000+0  11916-2 0  9991
2 69197  53.1582 236.9774 0001469  44.5600 315.5541 15.80946190  3678
